ONEWEB-0652             
1 55814U 23029U   25324.30226865  .00000022  00000+0  25136-4 0  9991
2 55814  87.8982 331.3411 0001674  90.4110 269.7212 13.14502191131928
ONEWEB-0653             
1 55815U 23029V   25324.28641422 -.00000179  00000+0 -51653-3 0  9996
2 55815  87.8980 331.3336 0001756  96.3047 263.8283 13.14502717131958
ONEWEB-0654             
1 55816U 23029W   25324.28165262 -.00000188  00000+0 -54052-3 0  9996
2 55816  87.8980 331.3335 0001463  94.3912 265.7385 13.14502343131973
ONEWEB-0656             
1 55817U 23029X   25324.03958251  .00000007  00000+0 -14260-4 0  9995
2 55817  87.9184 316.1376 0001391  92.4299 267.6994 13.20773519133548
ONEWEB-0657             
1 55818U 23029Y   25324.12191314 -.00000016  00000+0 -71883-4 0  9990
2 55818  87.9201 346.5865 0001469  71.1152 289.0140 13.19724412131339
ONEWEB-0658             
1 55819U 23029Z   25324.11714663 -.00000079  00000+0 -22862-3 0  9999
2 55819  87.9218 346.5368 0002262  88.4780 271.6612 13.19724053131349
ONEWEB-0660             
1 55820U 23029AA  25324.25945852  .00000109  00000+0  25901-3 0  9991
2 55820  87.8995 331.3155 0002061  97.8987 262.2376 13.14502443131950
ONEWEB-0661             
1 55821U 23029AB  25324.29435168 -.00000113  00000+0 -34046-3 0  9997
2 55821  87.8981 331.3761 0002007 100.5886 259.5470 13.14503495131940
ONEWEB-0662             
1 55822U 23029AC  25324.10088800  .00000135  00000+0  32844-3 0  9991
2 55822  87.8986 331.4204 0002106  97.0646 263.0723 13.14502468131965
ONEWEB-0663             
1 55823U 23029AD  25324.23926867  .00000159  00000+0  35747-3 0  9991
2 55823  87.9195 316.1624 0002311  92.5420 267.5978 13.20851986133561
ONEWEB-0664             
1 55824U 23029AE  25324.25424210  .00000046  00000+0  80461-4 0  9998
2 55824  87.9176 316.1684 0001752 100.4169 259.7162 13.20771826133566
ONEWEB-0665             
1 55825U 23029AF  25324.29117950 -.00000176  00000+0 -50836-3 0  9991
2 55825  87.8985 331.3540 0002117  95.0745 265.0627 13.14503048131969
ONEWEB-0666             
1 55826U 23029AG  25324.24791358  .00000247  00000+0  57494-3 0  9991
2 55826  87.9180 316.1585 0001462  67.0072 293.1215 13.20774041133576
ONEWEB-0667             
1 55827U 23029AH  25324.24160060  .00000114  00000+0  24967-3 0  9994
2 55827  87.9187 316.0905 0001991  93.7646 266.3715 13.20769954133562
ONEWEB-0669             
1 55828U 23029AJ  25324.23685904 -.00000290  00000+0 -74467-3 0  9990
2 55828  87.9175 316.1277 0001259 102.1889 257.9386 13.20770880133564
ONEWEB-0670             
1 55829U 23029AK  25324.04061162 -.00000121  00000+0 -36005-3 0  9993
2 55829  87.8989 331.4241 0001918 102.7799 257.3545 13.14500981131954
