[{"OBJECT_NAME":"ONEWEB-0652","OBJECT_ID":"2023-029U","EPOCH":"2025-11-20T07:15:16.011360","MEAN_MOTION":13.14502191,"ECCENTRICITY":0.00016747,"INCLINATION":87.8982,"RA_OF_ASC_NODE":331.3411,"ARG_OF_PERICENTER":90.411,"MEAN_ANOMALY":269.7212,"EPHEMERIS_TYPE":0,"CLASSIFICATION_TYPE":"U","NORAD_CAT_ID":55814,"ELEMENT_SET_NO":999,"REV_AT_EPOCH":13192,"BSTAR":2.5136033e-5,"MEAN_MOTION_DOT":2.2e-7,"MEAN_MOTION_DDOT":0},{"OBJECT_NAME":"ONEWEB-0653","OBJECT_ID":"2023-029V","EPOCH":"2025-11-20T06:52:26.188608","MEAN_MOTION":13.14502717,"ECCENTRICITY":0.00017564,"INCLINATION":87.898,"RA_OF_ASC_NODE":331.3336,"ARG_OF_PERICENTER":96.3047,"MEAN_ANOMALY":263.8283,"EPHEMERIS_TYPE":0,"CLASSIFICATION_TYPE":"U","NORAD_CAT_ID":55815,"ELEMENT_SET_NO":999,"REV_AT_EPOCH":13195,"BSTAR":-0.00051652784,"MEAN_MOTION_DOT":-1.79e-6,"MEAN_MOTION_DDOT":0},{"OBJECT_NAME":"ONEWEB-0654","OBJECT_ID":"2023-029W","EPOCH":"2025-11-20T06:45:34.786368","MEAN_MOTION":13.14502343,"ECCENTRICITY":0.00014631,"INCLINATION":87.898,"RA_OF_ASC_NODE":331.3335,"ARG_OF_PERICENTER":94.3912,"MEAN_ANOMALY":265.7385,"EPHEMERIS_TYPE":0,"CLASSIFICATION_TYPE":"U","NORAD_CAT_ID":55816,"ELEMENT_SET_NO":999,"REV_AT_EPOCH":13197,"BSTAR":-0.0005405201,"MEAN_MOTION_DOT":-1.88e-6,"MEAN_MOTION_DDOT":0},{"OBJECT_NAME":"ONEWEB-0656","OBJECT_ID":"2023-029X","EPOCH":"2025-11-20T00:56:59.928864","MEAN_MOTION":13.20773519,"ECCENTRICITY":0.00013916,"INCLINATION":87.9184,"RA_OF_ASC_NODE":316.1376,"ARG_OF_PERICENTER":92.4299,"MEAN_ANOMALY":267.6994,"EPHEMERIS_TYPE":0,"CLASSIFICATION_TYPE":"U","NORAD_CAT_ID":55817,"ELEMENT_SET_NO":999,"REV_AT_EPOCH":13354,"BSTAR":-1.4259512e-5,"MEAN_MOTION_DOT":7.0e-8,"MEAN_MOTION_DDOT":0},{"OBJECT_NAME":"ONEWEB-0657","OBJECT_ID":"2023-029Y","EPOCH":"2025-11-20T02:55:33.295296","MEAN_MOTION":13.19724412,"ECCENTRICITY":0.00014698,"INCLINATION":87.9201,"RA_OF_ASC_NODE":346.5865,"ARG_OF_PERICENTER":71.1152,"MEAN_ANOMALY":289.014,"EPHEMERIS_TYPE":0,"CLASSIFICATION_TYPE":"U","NORAD_CAT_ID":55818,"ELEMENT_SET_NO":999,"REV_AT_EPOCH":13133,"BSTAR":-7.1883374e-5,"MEAN_MOTION_DOT":-1.6e-7,"MEAN_MOTION_DDOT":0},{"OBJECT_NAME":"ONEWEB-0658","OBJECT_ID":"2023-029Z","EPOCH":"2025-11-20T02:48:41.468832","MEAN_MOTION":13.19724053,"ECCENTRICITY":0.00022623,"INCLINATION":87.9218,"RA_OF_ASC_NODE":346.5368,"ARG_OF_PERICENTER":88.478,"MEAN_ANOMALY":271.6612,"EPHEMERIS_TYPE":0,"CLASSIFICATION_TYPE":"U","NORAD_CAT_ID":55819,"ELEMENT_SET_NO":999,"REV_AT_EPOCH":13134,"BSTAR":-0.00022862057,"MEAN_MOTION_DOT":-7.9e-7,"MEAN_MOTION_DDOT":0},{"OBJECT_NAME":"ONEWEB-0660","OBJECT_ID":"2023-029AA","EPOCH":"2025-11-20T06:13:37.216128","MEAN_MOTION":13.14502443,"ECCENTRICITY":0.00020617,"INCLINATION":87.8995,"RA_OF_ASC_NODE":331.3155,"ARG_OF_PERICENTER":97.8987,"MEAN_ANOMALY":262.2376,"EPHEMERIS_TYPE":0,"CLASSIFICATION_TYPE":"U","NORAD_CAT_ID":55820,"ELEMENT_SET_NO":999,"REV_AT_EPOCH":13195,"BSTAR":0.00025901499,"MEAN_MOTION_DOT":1.09e-6,"MEAN_MOTION_DDOT":0},{"OBJECT_NAME":"ONEWEB-0661","OBJECT_ID":"2023-029AB","EPOCH":"2025-11-20T07:03:51.985152","MEAN_MOTION":13.14503495,"ECCENTRICITY":0.00020079,"INCLINATION":87.8981,"RA_OF_ASC_NODE":331.3761,"ARG_OF_PERICENTER":100.5886,"MEAN_ANOMALY":259.547,"EPHEMERIS_TYPE":0,"CLASSIFICATION_TYPE":"U","NORAD_CAT_ID":55821,"ELEMENT_SET_NO":999,"REV_AT_EPOCH":13194,"BSTAR":-0.00034046377,"MEAN_MOTION_DOT":-1.13e-6,"MEAN_MOTION_DDOT":0},{"OBJECT_NAME":"ONEWEB-0662","OBJECT_ID":"2023-029AC","EPOCH":"2025-11-20T02:25:16.723200","MEAN_MOTION":13.14502468,"ECCENTRICITY":0.00021065,"INCLINATION":87.8986,"RA_OF_ASC_NODE":331.4204,"ARG_OF_PERICENTER":97.0646,"MEAN_ANOMALY":263.0723,"EPHEMERIS_TYPE":0,"CLASSIFICATION_TYPE":"U","NORAD_CAT_ID":55822,"ELEMENT_SET_NO":999,"REV_AT_EPOCH":13196,"BSTAR":0.00032843614,"MEAN_MOTION_DOT":1.35e-6,"MEAN_MOTION_DDOT":0},{"OBJECT_NAME":"ONEWEB-0663","OBJECT_ID":"2023-029AD","EPOCH":"2025-11-20T05:44:32.813088","MEAN_MOTION":13.20851986,"ECCENTRICITY":0.00023112,"INCLINATION":87.9195,"RA_OF_ASC_NODE":316.1624,"ARG_OF_PERICENTER":92.542,"MEAN_ANOMALY":267.5978,"EPHEMERIS_TYPE":0,"CLASSIFICATION_TYPE":"U","NORAD_CAT_ID":55823,"ELEMENT_SET_NO":999,"REV_AT_EPOCH":13356,"BSTAR":0.00035747077,"MEAN_MOTION_DOT":1.59e-6,"MEAN_MOTION_DDOT":0},{"OBJECT_NAME":"ONEWEB-0664","OBJECT_ID":"2023-029AE","EPOCH":"2025-11-20T06:06:06.517440","MEAN_MOTION":13.20771826,"ECCENTRICITY":0.00017521,"INCLINATION":87.9176,"RA_OF_ASC_NODE":316.1684,"ARG_OF_PERICENTER":100.4169,"MEAN_ANOMALY":259.7162,"EPHEMERIS_TYPE":0,"CLASSIFICATION_TYPE":"U","NORAD_CAT_ID":55824,"ELEMENT_SET_NO":999,"REV_AT_EPOCH":13356,"BSTAR":8.0461111e-5,"MEAN_MOTION_DOT":4.6e-7,"MEAN_MOTION_DDOT":0},{"OBJECT_NAME":"ONEWEB-0665","OBJECT_ID":"2023-029AF","EPOCH":"2025-11-20T06:59:17.908800","MEAN_MOTION":13.14503048,"ECCENTRICITY":0.00021178,"INCLINATION":87.8985,"RA_OF_ASC_NODE":331.354,"ARG_OF_PERICENTER":95.0745,"MEAN_ANOMALY":265.0627,"EPHEMERIS_TYPE":0,"CLASSIFICATION_TYPE":"U","NORAD_CAT_ID":55825,"ELEMENT_SET_NO":999,"REV_AT_EPOCH":13196,"BSTAR":-0.00050836152,"MEAN_MOTION_DOT":-1.76e-6,"MEAN_MOTION_DDOT":0},{"OBJECT_NAME":"ONEWEB-0666","OBJECT_ID":"2023-029AG","EPOCH":"2025-11-20T05:56:59.733312","MEAN_MOTION":13.20774041,"ECCENTRICITY":0.00014629,"INCLINATION":87.918,"RA_OF_ASC_NODE":316.1585,"ARG_OF_PERICENTER":67.0072,"MEAN_ANOMALY":293.1215,"EPHEMERIS_TYPE":0,"CLASSIFICATION_TYPE":"U","NORAD_CAT_ID":55826,"ELEMENT_SET_NO":999,"REV_AT_EPOCH":13357,"BSTAR":0.00057493946,"MEAN_MOTION_DOT":2.47e-6,"MEAN_MOTION_DDOT":0},{"OBJECT_NAME":"ONEWEB-0667","OBJECT_ID":"2023-029AH","EPOCH":"2025-11-20T05:47:54.291840","MEAN_MOTION":13.20769954,"ECCENTRICITY":0.00019914,"INCLINATION":87.9187,"RA_OF_ASC_NODE":316.0905,"ARG_OF_PERICENTER":93.7646,"MEAN_ANOMALY":266.3715,"EPHEMERIS_TYPE":0,"CLASSIFICATION_TYPE":"U","NORAD_CAT_ID":55827,"ELEMENT_SET_NO":999,"REV_AT_EPOCH":13356,"BSTAR":0.00024966868,"MEAN_MOTION_DOT":1.14e-6,"MEAN_MOTION_DDOT":0},{"OBJECT_NAME":"ONEWEB-0669","OBJECT_ID":"2023-029AJ","EPOCH":"2025-11-20T05:41:04.621056","MEAN_MOTION":13.2077088,"ECCENTRICITY":0.00012598,"INCLINATION":87.9175,"RA_OF_ASC_NODE":316.1277,"ARG_OF_PERICENTER":102.1889,"MEAN_ANOMALY":257.9386,"EPHEMERIS_TYPE":0,"CLASSIFICATION_TYPE":"U","NORAD_CAT_ID":55828,"ELEMENT_SET_NO":999,"REV_AT_EPOCH":13356,"BSTAR":-0.000744667,"MEAN_MOTION_DOT":-2.9e-6,"MEAN_MOTION_DDOT":0},{"OBJECT_NAME":"ONEWEB-0670","OBJECT_ID":"2023-029AK","EPOCH":"2025-11-20T00:58:28.843968","MEAN_MOTION":13.14500981,"ECCENTRICITY":0.00019181,"INCLINATION":87.8989,"RA_OF_ASC_NODE":331.4241,"ARG_OF_PERICENTER":102.7799,"MEAN_ANOMALY":257.3545,"EPHEMERIS_TYPE":0,"CLASSIFICATION_TYPE":"U","NORAD_CAT_ID":55829,"ELEMENT_SET_NO":999,"REV_AT_EPOCH":13195,"BSTAR":-0.00036004868,"MEAN_MOTION_DOT":-1.21e-6,"MEAN_MOTION_DDOT":0}]
